{
  "type": "FeatureCollection",
  "features": [
    {
      "type": "Feature",
      "properties": {
        "norad_id": 37278,
        "name": "COSMOS 2251 DEB",
        "group": "cosmos-2251-debris",
        "lat": 43.30079965875729,
        "lon": 168.42242337124623,
        "alt_km": 706.2732405639554,
        "timestamp": "2025-12-04T09:47:37.917280+00:00",
        "meta_object_name": "COSMOS 2251 DEB",
        "meta_object_id": "1993-036BHS",
        "meta_epoch": "2025-12-02T09:56:27.053664",
        "meta_mean_motion": 14.15004215,
        "meta_eccentricity": 0.03002048,
        "meta_inclination": 73.7872,
        "meta_ra_of_asc_node": 7.9316,
        "meta_arg_of_pericenter": 192.1474,
        "meta_mean_anomaly": 231.9822,
        "meta_ephemeris_type": 0,
        "meta_classification_type": "U",
        "meta_norad_cat_id": 37278,
        "meta_element_set_no": 999,
        "meta_rev_at_epoch": 63683,
        "meta_bstar": 0.0013681132,
        "meta_mean_motion_dot": 4.07e-05,
        "meta_mean_motion_ddot": 0,
        "tle_line1": "1 37278U 93036BHS 25336.41420201  .00004070  00000+0  13681-2 0  9992",
        "tle_line2": "2 37278  73.7872   7.9316 0300204 192.1474 231.9822 14.15004215636832"
      },
      "geometry": {
        "type": "Point",
        "coordinates": [
          168.42242337124623,
          43.30079965875729
        ]
      }
    },
    {
      "type": "Feature",
      "properties": {
        "norad_id": 37280,
        "name": "COSMOS 2251 DEB",
        "group": "cosmos-2251-debris",
        "lat": -37.09683388266509,
        "lon": 59.45726304931748,
        "alt_km": 879.3177894479013,
        "timestamp": "2025-12-04T09:47:37.917290+00:00",
        "meta_object_name": "COSMOS 2251 DEB",
        "meta_object_id": "1993-036BHU",
        "meta_epoch": "2025-12-02T00:27:32.804352",
        "meta_mean_motion": 14.19175148,
        "meta_eccentricity": 0.01319076,
        "meta_inclination": 74.0306,
        "meta_ra_of_asc_node": 76.2311,
        "meta_arg_of_pericenter": 206.963,
        "meta_mean_anomaly": 152.4621,
        "meta_ephemeris_type": 0,
        "meta_classification_type": "U",
        "meta_norad_cat_id": 37280,
        "meta_element_set_no": 999,
        "meta_rev_at_epoch": 57171,
        "meta_bstar": 0.0022688373,
        "meta_mean_motion_dot": 5.159e-05,
        "meta_mean_motion_ddot": 0,
        "tle_line1": "1 37280U 93036BHU 25336.01912968  .00005159  00000+0  22688-2 0  9993",
        "tle_line2": "2 37280  74.0306  76.2311 0131907 206.9630 152.4621 14.19175148571712"
      },
      "geometry": {
        "type": "Point",
        "coordinates": [
          59.45726304931748,
          -37.09683388266509
        ]
      }
    },
    {
      "type": "Feature",
      "properties": {
        "norad_id": 37284,
        "name": "COSMOS 2251 DEB",
        "group": "cosmos-2251-debris",
        "lat": 22.108291950675707,
        "lon": -15.210111989939097,
        "alt_km": 963.1319282248141,
        "timestamp": "2025-12-04T09:47:37.917301+00:00",
        "meta_object_name": "COSMOS 2251 DEB",
        "meta_object_id": "1993-036BHY",
        "meta_epoch": "2025-12-03T06:41:07.429344",
        "meta_mean_motion": 14.12637571,
        "meta_eccentricity": 0.0160501,
        "meta_inclination": 74.014,
        "meta_ra_of_asc_node": 173.4758,
        "meta_arg_of_pericenter": 327.2268,
        "meta_mean_anomaly": 208.0827,
        "meta_ephemeris_type": 0,
        "meta_classification_type": "U",
        "meta_norad_cat_id": 37284,
        "meta_element_set_no": 999,
        "meta_rev_at_epoch": 59041,
        "meta_bstar": 0.0016372,
        "meta_mean_motion_dot": 3.402e-05,
        "meta_mean_motion_ddot": 0,
        "tle_line1": "1 37284U 93036BHY 25337.27855821  .00003402  00000+0  16372-2 0  9992",
        "tle_line2": "2 37284  74.0140 173.4758 0160501 327.2268 208.0827 14.12637571590413"
      },
      "geometry": {
        "type": "Point",
        "coordinates": [
          -15.210111989939097,
          22.108291950675707
        ]
      }
    },
    {
      "type": "Feature",
      "properties": {
        "norad_id": 37295,
        "name": "COSMOS 2251 DEB",
        "group": "cosmos-2251-debris",
        "lat": 55.80761813618179,
        "lon": -37.34194347596499,
        "alt_km": 655.579865191924,
        "timestamp": "2025-12-04T09:47:37.917311+00:00",
        "meta_object_name": "COSMOS 2251 DEB",
        "meta_object_id": "1993-036BJK",
        "meta_epoch": "2025-12-01T04:30:08.731584",
        "meta_mean_motion": 14.65123594,
        "meta_eccentricity": 0.00437469,
        "meta_inclination": 74.0068,
        "meta_ra_of_asc_node": 303.8923,
        "meta_arg_of_pericenter": 126.7963,
        "meta_mean_anomaly": 233.7233,
        "meta_ephemeris_type": 0,
        "meta_classification_type": "U",
        "meta_norad_cat_id": 37295,
        "meta_element_set_no": 999,
        "meta_rev_at_epoch": 82135,
        "meta_bstar": 0.00057778641,
        "meta_mean_motion_dot": 3.118e-05,
        "meta_mean_motion_ddot": 0,
        "tle_line1": "1 37295U 93036BJK 25335.18760106  .00003118  00000+0  57779-3 0  9994",
        "tle_line2": "2 37295  74.0068 303.8923 0043746 126.7963 233.7233 14.65123594821351"
      },
      "geometry": {
        "type": "Point",
        "coordinates": [
          -37.34194347596499,
          55.80761813618179
        ]
      }
    },
    {
      "type": "Feature",
      "properties": {
        "norad_id": 37305,
        "name": "COSMOS 2251 DEB",
        "group": "cosmos-2251-debris",
        "lat": -6.073579300536467,
        "lon": -55.790788393586055,
        "alt_km": 772.3889784076164,
        "timestamp": "2025-12-04T09:47:37.917321+00:00",
        "meta_object_name": "COSMOS 2251 DEB",
        "meta_object_id": "1993-036BJV",
        "meta_epoch": "2025-12-01T04:54:57.845088",
        "meta_mean_motion": 14.36058989,
        "meta_eccentricity": 0.0050534,
        "meta_inclination": 73.8694,
        "meta_ra_of_asc_node": 311.9126,
        "meta_arg_of_pericenter": 273.9871,
        "meta_mean_anomaly": 85.5504,
        "meta_ephemeris_type": 0,
        "meta_classification_type": "U",
        "meta_norad_cat_id": 37305,
        "meta_element_set_no": 999,
        "meta_rev_at_epoch": 66701,
        "meta_bstar": 0.00088749,
        "meta_mean_motion_dot": 2.593e-05,
        "meta_mean_motion_ddot": 0,
        "tle_line1": "1 37305U 93036BJV 25335.20483617  .00002593  00000+0  88749-3 0  9995",
        "tle_line2": "2 37305  73.8694 311.9126 0050534 273.9871  85.5504 14.36058989667014"
      },
      "geometry": {
        "type": "Point",
        "coordinates": [
          -55.790788393586055,
          -6.073579300536467
        ]
      }
    },
    {
      "type": "Feature",
      "properties": {
        "norad_id": 37312,
        "name": "COSMOS 2251 DEB",
        "group": "cosmos-2251-debris",
        "lat": 72.75295530842122,
        "lon": -27.53087156865441,
        "alt_km": 739.9424349123137,
        "timestamp": "2025-12-04T09:47:37.917331+00:00",
        "meta_object_name": "COSMOS 2251 DEB",
        "meta_object_id": "1993-036BKC",
        "meta_epoch": "2025-12-03T01:48:10.090656",
        "meta_mean_motion": 14.46074055,
        "meta_eccentricity": 0.00181668,
        "meta_inclination": 74.0321,
        "meta_ra_of_asc_node": 222.2189,
        "meta_arg_of_pericenter": 326.4091,
        "meta_mean_anomaly": 33.5914,
        "meta_ephemeris_type": 0,
        "meta_classification_type": "U",
        "meta_norad_cat_id": 37312,
        "meta_element_set_no": 999,
        "meta_rev_at_epoch": 86024,
        "meta_bstar": 0.00063141036,
        "meta_mean_motion_dot": 2.231e-05,
        "meta_mean_motion_ddot": 0,
        "tle_line1": "1 37312U 93036BKC 25337.07511679  .00002231  00000+0  63141-3 0  9998",
        "tle_line2": "2 37312  74.0321 222.2189 0018166 326.4091  33.5914 14.46074055860249"
      },
      "geometry": {
        "type": "Point",
        "coordinates": [
          -27.53087156865441,
          72.75295530842122
        ]
      }
    },
    {
      "type": "Feature",
      "properties": {
        "norad_id": 37316,
        "name": "COSMOS 2251 DEB",
        "group": "cosmos-2251-debris",
        "lat": -63.49824014780341,
        "lon": 2.7771508028271676,
        "alt_km": 610.2518809477879,
        "timestamp": "2025-12-04T09:47:37.917341+00:00",
        "meta_object_name": "COSMOS 2251 DEB",
        "meta_object_id": "1993-036BKG",
        "meta_epoch": "2025-12-03T03:33:34.876512",
        "meta_mean_motion": 14.93653646,
        "meta_eccentricity": 0.00242896,
        "meta_inclination": 74.0165,
        "meta_ra_of_asc_node": 40.4029,
        "meta_arg_of_pericenter": 114.0887,
        "meta_mean_anomaly": 246.2841,
        "meta_ephemeris_type": 0,
        "meta_classification_type": "U",
        "meta_norad_cat_id": 37316,
        "meta_element_set_no": 999,
        "meta_rev_at_epoch": 86000,
        "meta_bstar": 0.00081669727,
        "meta_mean_motion_dot": 8.654e-05,
        "meta_mean_motion_ddot": 0,
        "tle_line1": "1 37316U 93036BKG 25337.14832033  .00008654  00000+0  81670-3 0  9992",
        "tle_line2": "2 37316  74.0165  40.4029 0024289 114.0887 246.2841 14.93653646860006"
      },
      "geometry": {
        "type": "Point",
        "coordinates": [
          2.7771508028271676,
          -63.49824014780341
        ]
      }
    }
  ]
}